STARLINK-31420          
1 59223U 24046Y   26068.47667750  .00000258  00000+0  20839-4 0  9991
2 59223  53.1591 156.5581 0001393  29.2244 330.8835 15.30182009113001
TEVEL2-6                
1 63215U 25052F   26068.64958975  .00021046  00000+0  70909-3 0  9996
2 63215  97.4016 325.0381 0004769  95.6604 264.5181 15.30760889 54861
